#dP2023  8 11  0  0  0.00000000      96 __u+U ITR00 EXT  IAC
## 2274 432000.00000000   900.00000000 60167 0.0000000000000
+  117   C06C07C08C09C10C11C12C13C14C16C19C20C21C22C23C24C25
+        C26C27C28C29C30C32C33C34C35C36C37C38C39C40C41C42C43
+        C44C45C46E02E03E04E05E07E08E09E10E11E12E13E14E15E18
+        E19E21E24E26E27E30E31E33E34E36G01G02G03G04G05G06G07
+        G08G09G10G11G12G13G14G15G16G17G18G19G20G21G23G24G25
+        G26G27G28G29G30G31G32J02J03J04R01R02R03R04R05R07R08
+        R09R11R12R13R14R15R16R17R18R19R20R21R22R24R25  0  0
++        11 10  9 10 11  9  9  9 10 10  9  8  9  9  8 10  9
++         9  8  7  9  8 10  9 10  8  8  8  9 11 11  8  7  8
++        10  8  7  7  7  8  7  8  8  8  8  8  7  7  6  7  6
++         7  7  7  8  7  6  7  8  7  7  6  6  6  8  8  7  8
++         7  8  7  7  8  8  7  7  7  7  8  7  8  7  8  8  7
++         6  7  7  7  7  7  7 11  9  0  7  8  8  8  8  7  7
++         7  8  8  8  9  9  7  8  7 10 10  9  8  8  7  0  0
%c M  cc GPS ccc cccc cccc cccc cccc ccccc ccccc ccccc ccccc
%c cc cc ccc ccc cccc cccc cccc cccc ccccc ccccc ccccc ccccc
%f  0.0000000  0.000000000  0.00000000000  0.000000000000000
%f  0.0000000  0.000000000  0.00000000000  0.000000000000000
%i    0    0    0    0      0      0      0      0         0
%i    0    0    0    0      0      0      0      0         0
/* IAC                                ULTRA-RAPID PREDICTION
/* S/V CLOCKS ARE ALIGNED TO GNSS TIME                      
/* G:C1WC2W R:C1PC2P E:C1XC5X C:C2IC6I J:C1CC2S             
/* PCV:IGS20_2247 OL/AL:FES2004  NONE     YN ORB:CoN CLK:CoN
*  2023 08 11 14 15  0.00000000
PC06 -13489.855265  23498.150712  32270.906936    851.522116
PC07 -13361.343737  40037.060362  -2330.430819     86.219102
PC08   1320.505935  30938.114243 -28526.540175    393.981846
PC09  -2897.111556  24564.559669  34548.240962    305.377873
PC10  -8379.824158  40815.338416  -7845.657972   -142.276245
PC11 -27198.924549   2788.878582   5730.682626    773.788895
PC12 -16851.473130  -9457.124078  20175.488035    862.039967
PC13   6633.662400  34256.978209 -23320.888974    332.383236
PC14 -16526.350832   3584.531565 -22201.490711    209.690712
PC16 -15981.878594  22650.254926  31929.359184    -31.167712
PC19  16125.136452 -13957.402871  18001.302590   -957.849286
PC20  14718.092823   5590.486003  23045.762717    369.398711
PC21  -4250.715778 -23409.557800 -14554.985763   -947.783265
PC22   8327.891493 -26522.201759   2253.153300   -356.030654
PC23  -4098.883404  17528.059860  21335.303461   -908.992111
PC24 -22644.321537 -14512.608109   7482.620692    272.464815
PC25 -18343.249287   3371.641422  20758.343200    187.202856
PC26 -14410.554860 -22186.107875  -8944.593988   -161.720143
PC27   8468.933199  14021.284641 -22613.838046    182.897373
PC28 -10853.980059  16920.778821 -19356.394608    136.736509
PC29  25619.529737 -10525.602520   3377.358830    159.488652
PC30  23854.233434   2926.445201 -14204.064857     -3.339041
PC32   4370.621217  23468.674596  14472.510150   -532.874452
PC33 -16073.147657  13990.585974 -18032.116215   -934.641030
PC34 -24558.977011  -1961.112093  13080.201176    234.837591
PC35  10528.938215 -17359.676706  19146.101867    569.951803
PC36  18849.168150  -2200.642108 -20428.307832   -281.834067
PC37  13140.129286  22586.408916   9782.151020   -805.725596
PC38  -6247.796640  26886.482069 -31792.107493     97.491267
PC39 -21908.582304  21995.384494  28461.244466     -4.261141
PC40 -20350.859463  37091.288567    218.020450    -32.533311
PC41  -8621.995863  26382.698867  -2905.202123   -889.786261
PC42 -14279.753548  -7141.218650 -22848.920481   -581.303105
PC43 -25920.927547   9998.576745  -2555.535785     34.799677
PC44  -8796.966300 -13905.594226  22521.574018    196.835227
PC45   3505.964570 -17776.748325 -21222.097527    -12.738691
PC46  22754.171026  13543.112380  -8743.258343    -75.748597
PE02  11967.865430 -15616.381844 -22115.452107     55.026000
PE03  22032.851229 -19714.667308   1256.485801    -44.930124
PE04  -8284.812732  23423.458274  16098.671745   -187.016320
PE05  23042.658804  -4458.054429  18036.105767      8.030501
PE07 -10265.951065 -13621.529366 -24187.448752    -66.607420
PE08   8691.016771 -23429.023483 -15856.170099   -128.678874
PE09  10025.096538  13649.322205  24278.312101   -116.700762
PE10  11573.858846  17409.631778 -20961.920796   -555.315241
PE11  21369.133751  15421.446279 -13500.976291   2700.757083
PE12    860.895534  16726.283044 -24415.750047   -653.876888
PE13 -20844.239546 -15571.207382  14113.668576    -19.421529
PE14  20680.021137 -13061.505786  -3350.866091    308.266954
PE15   -453.115915 -16561.526634  24528.368882    -44.275675
PE18 -20282.452692  23637.431965  -7342.188394    401.320898
PE19 -23054.295470  18188.175062  -3725.175866  -1874.120655
PE21 -17630.423248  -5180.706999  23210.312557   -546.043021
PE24  13025.127518  24483.577800 -10332.238609   -259.950262
PE26 -28730.203494  -5005.625917  -5102.181333    189.685212
PE27 -13384.085650 -24056.152567  10892.560508   -121.922730
PE30   -860.023410 -28457.510498  -8118.831096   -409.430372
PE31   1285.693555  28549.537679   7725.820931     -2.433699
PE33 -20446.910357   7444.134952 -20077.135035     -1.658902
PE34  19885.467464  -7888.030438  20439.992570    -60.976196
PE36  28750.986316   5490.568415   4403.679478    -99.477222
PG01  19591.297867  14525.018431 -11267.592722    169.004972
PG02  14918.498725  14734.328266 -15894.338961   -566.606926
PG03  12490.448853  20159.003026  11931.977126   -192.071565
PG04  12500.772637   9100.755169  21615.295311    122.447613
PG05  -4944.672931 -25883.771348   2645.071550   -138.399054
PG06  16700.420199  -7761.760811  19235.385002    567.663935
PG07  25889.217852   5864.001908  -3364.980489     98.834977
PG08   2694.661486  17047.291397 -20154.239760   -136.660931
PG09  19107.056866   -250.232259  18385.442922    -89.340696
PG10 -12242.251177  10158.154898 -21029.396104    -48.854556
PG11   2099.824856 -15232.793193  21669.387031   -316.106342
PG12  -9372.673844 -23240.075098   8638.215303   -411.640503
PG13   7093.378154 -19037.289560 -17181.410279    558.778106
PG14  14353.459438  -6604.174288 -21311.825468    150.775678
PG15  -5759.728719 -16619.592057 -20313.941949     66.633428
PG16  -1251.330226  25445.715819   6316.522641   -469.599830
PG17  22326.766447 -13395.080196  -5089.443216    722.557277
PG18 -25503.580911  -3959.520375  -6645.878113   -378.756042
PG19  20444.071937 -16528.009665   1950.736048    356.228889
PG20    862.194748 -23161.308735  13172.807482    417.798329
PG21  12971.725951  15325.138418 -17288.601371    150.893544
PG23 -15680.603078  -3752.368817 -21134.457332     53.803991
PG24 -16607.211017 -15058.843010 -14926.779124   -286.493186
PG25 -15630.611522 -11932.191046  17661.588156    461.548261
PG26  -6787.807495  19671.402579  16187.727954    233.340132
PG27  -9009.782421  20910.611618 -13576.080325    -20.111554
PG28 -18244.433463   7657.136758  17698.397474     77.061178
PG29 -18645.007176  -1674.850544  18834.326693   -607.567728
PG30  23405.250371  -2009.165349 -12522.285989   -497.299784
PG31  -8491.588726  13077.199724  21358.220969   -221.658346
PG32 -20446.862069  16587.029502  -2372.918354   -538.628160
PJ02 -27560.255313  24280.126370  25824.866621     -2.421983
PJ03 -32632.705264  16908.805435 -16083.361793     -0.928058
PJ04 -19779.196063  34552.247177  -8682.876031     70.503016
PR01  13017.764113  -4357.813979  21493.620608     63.274444
PR02  13810.860681 -19576.294779   8893.188086    -22.553475
PR03   6258.022401 -23228.935574  -8527.101283     83.092617
PR04  -4229.431236 -13892.264019 -20949.714915    198.269624
PR05 -12613.206111   2812.780033 -21979.657334    117.162595
PR07  -5702.780965  22986.238877   9445.828175     62.185630
PR08   4600.113745  13698.378531  21066.615796    -72.087833
PR09  -7449.641202   8871.878500  22753.250745    136.126483
PR11  15215.707008  20481.179036   -426.367091   -129.342741
PR12  16405.348935   8329.035988 -17631.156552     30.061694
PR13   8778.226757  -6730.746579 -22991.716132    -38.053288
PR14  -5699.900218 -20000.013538 -14737.055587     25.077793
PR15 -15528.960760 -20149.978809   1837.551871     87.087492
PR16 -16448.436417  -8498.653505  17543.755828     17.587440
PR17   2947.846008 -10746.462633  22945.069670      7.900892
PR18 -14560.033336  -7667.315048  19486.158071     96.230227
PR19 -24335.705676  -2107.061227   7367.195317   -243.113503
PR20 -20729.709800   6818.952798 -13176.657429    -98.121805
PR21  -1860.197054  10614.815376 -23124.806021    -29.576335
PR22  15269.129794   8143.310893 -18719.550517    111.251817
PR24  20028.658094  -8055.100321  13581.380075    -20.074754
PR25  -3556.609279  10909.857995 -22780.973050     43.145795
EOF
